ONEWEB-0290             
1 49080U 21075F   25212.65188530 -.00000193  00000+0 -53117-3 0  9998
2 49080  87.9033  69.6415 0001831  62.7650 297.3668 13.17649286191406
ONEWEB-0291             
1 49081U 21075G   25212.63670820 -.00000007  00000+0 -50217-4 0  9998
2 49081  87.9039  69.6466 0001366  84.4921 275.6366 13.17650568191391
ONEWEB-0293             
1 49082U 21075H   25213.11763699  .00000068  00000+0  14145-3 0  9994
2 49082  87.9031  69.5841 0001689  79.8738 280.2584 13.17647325192462
ONEWEB-0294             
1 49083U 21075J   25212.59966407 -.00000249  00000+0 -72758-3 0  9995
2 49083  87.8853  54.3857 0001484  70.1177 290.0111 13.12443702192527
ONEWEB-0295             
1 49084U 21075K   25213.11679140  .00000073  00000+0  15367-3 0  9996
2 49084  87.9041  69.5841 0001401  86.8101 273.3191 13.17648998192407
ONEWEB-0296             
1 49085U 21075L   25212.58019537 -.00000121  00000+0 -37177-3 0  9994
2 49085  87.8847  54.3975 0001206  84.2342 275.8924 13.12442000193518
ONEWEB-0297             
1 49086U 21075M   25212.83973369  .00000047  00000+0  95547-4 0  9996
2 49086  87.8852  54.3834 0001709  88.7661 271.3663 13.12443482193167
ONEWEB-0298             
1 49087U 21075N   25213.12114654  .00000139  00000+0  32361-3 0  9990
2 49087  87.9032  69.5815 0001746  88.9375 271.1956 13.17649479192465
ONEWEB-0299             
1 49088U 21075P   25213.12269352  .00000132  00000+0  30788-3 0  9991
2 49088  87.9040  69.5334 0001691  90.6693 269.4632 13.17649907192426
ONEWEB-0300             
1 49089U 21075Q   25212.60291195 -.00000159  00000+0 -47704-3 0  9991
2 49089  87.8851  54.3831 0002067  91.1380 268.9986 13.12442867193155
ONEWEB-0301             
1 49090U 21075R   25212.58669032 -.00000400  00000+0 -11477-2 0  9995
2 49090  87.8847  54.3921 0002169  91.6455 268.4922 13.12442634192519
ONEWEB-0302             
1 49091U 21075S   25212.64996597 -.00000087  00000+0 -27656-3 0  9990
2 49091  87.8851  54.3820 0001457  76.6285 283.5005 13.12440047192501
ONEWEB-0304             
1 49092U 21075T   25212.64176203  .00000023  00000+0  25437-4 0  9999
2 49092  87.9038  69.6618 0001650  86.1543 273.9778 13.17650038191363
ONEWEB-0305             
1 49093U 21075U   25212.63500580  .00000022  00000+0  23569-4 0  9991
2 49093  87.9034  69.6398 0001476  94.4733 265.6567 13.17647757192363
ONEWEB-0308             
1 49094U 21075V   25212.94841642  .00000194  00000+0  50457-3 0  9998
2 49094  87.8849  54.3160 0001780  85.7942 274.3390 13.12442249192554
ONEWEB-0309             
1 49095U 21075W   25212.63838159 -.00000203  00000+0 -55604-3 0  9996
2 49095  87.9035  69.6565 0001516  69.5257 290.6037 13.17648326191363
ONEWEB-0310             
1 49096U 21075X   25212.58182310 -.00000341  00000+0 -98371-3 0  9993
2 49096  87.8854  54.4347 0001656  83.1095 277.0222 13.12442356194132
