[{"OBJECT_NAME":"ONEWEB-0290","OBJECT_ID":"2021-075F","EPOCH":"2025-07-31T15:38:42.889920","MEAN_MOTION":13.17649286,"ECCENTRICITY":0.0001831,"INCLINATION":87.9033,"RA_OF_ASC_NODE":69.6415,"ARG_OF_PERICENTER":62.765,"MEAN_ANOMALY":297.3668,"EPHEMERIS_TYPE":0,"CLASSIFICATION_TYPE":"U","NORAD_CAT_ID":49080,"ELEMENT_SET_NO":999,"REV_AT_EPOCH":19140,"BSTAR":-0.00053117,"MEAN_MOTION_DOT":-1.93e-6,"MEAN_MOTION_DDOT":0},{"OBJECT_NAME":"ONEWEB-0291","OBJECT_ID":"2021-075G","EPOCH":"2025-07-31T15:16:51.588480","MEAN_MOTION":13.17650568,"ECCENTRICITY":0.0001366,"INCLINATION":87.9039,"RA_OF_ASC_NODE":69.6466,"ARG_OF_PERICENTER":84.4921,"MEAN_ANOMALY":275.6366,"EPHEMERIS_TYPE":0,"CLASSIFICATION_TYPE":"U","NORAD_CAT_ID":49081,"ELEMENT_SET_NO":999,"REV_AT_EPOCH":19139,"BSTAR":-5.0217e-5,"MEAN_MOTION_DOT":-7.0e-8,"MEAN_MOTION_DDOT":0},{"OBJECT_NAME":"ONEWEB-0293","OBJECT_ID":"2021-075H","EPOCH":"2025-08-01T02:49:23.835936","MEAN_MOTION":13.17647325,"ECCENTRICITY":0.0001689,"INCLINATION":87.9031,"RA_OF_ASC_NODE":69.5841,"ARG_OF_PERICENTER":79.8738,"MEAN_ANOMALY":280.2584,"EPHEMERIS_TYPE":0,"CLASSIFICATION_TYPE":"U","NORAD_CAT_ID":49082,"ELEMENT_SET_NO":999,"REV_AT_EPOCH":19246,"BSTAR":0.00014145,"MEAN_MOTION_DOT":6.8e-7,"MEAN_MOTION_DDOT":0},{"OBJECT_NAME":"ONEWEB-0294","OBJECT_ID":"2021-075J","EPOCH":"2025-07-31T14:23:30.975648","MEAN_MOTION":13.12443702,"ECCENTRICITY":0.0001484,"INCLINATION":87.8853,"RA_OF_ASC_NODE":54.3857,"ARG_OF_PERICENTER":70.1177,"MEAN_ANOMALY":290.0111,"EPHEMERIS_TYPE":0,"CLASSIFICATION_TYPE":"U","NORAD_CAT_ID":49083,"ELEMENT_SET_NO":999,"REV_AT_EPOCH":19252,"BSTAR":-0.00072758,"MEAN_MOTION_DOT":-2.49e-6,"MEAN_MOTION_DDOT":0},{"OBJECT_NAME":"ONEWEB-0295","OBJECT_ID":"2021-075K","EPOCH":"2025-08-01T02:48:10.776960","MEAN_MOTION":13.17648998,"ECCENTRICITY":0.0001401,"INCLINATION":87.9041,"RA_OF_ASC_NODE":69.5841,"ARG_OF_PERICENTER":86.8101,"MEAN_ANOMALY":273.3191,"EPHEMERIS_TYPE":0,"CLASSIFICATION_TYPE":"U","NORAD_CAT_ID":49084,"ELEMENT_SET_NO":999,"REV_AT_EPOCH":19240,"BSTAR":0.00015367,"MEAN_MOTION_DOT":7.3e-7,"MEAN_MOTION_DDOT":0},{"OBJECT_NAME":"ONEWEB-0296","OBJECT_ID":"2021-075L","EPOCH":"2025-07-31T13:55:28.879968","MEAN_MOTION":13.12442,"ECCENTRICITY":0.0001206,"INCLINATION":87.8847,"RA_OF_ASC_NODE":54.3975,"ARG_OF_PERICENTER":84.2342,"MEAN_ANOMALY":275.8924,"EPHEMERIS_TYPE":0,"CLASSIFICATION_TYPE":"U","NORAD_CAT_ID":49085,"ELEMENT_SET_NO":999,"REV_AT_EPOCH":19351,"BSTAR":-0.00037177,"MEAN_MOTION_DOT":-1.21e-6,"MEAN_MOTION_DDOT":0},{"OBJECT_NAME":"ONEWEB-0297","OBJECT_ID":"2021-075M","EPOCH":"2025-07-31T20:09:12.990816","MEAN_MOTION":13.12443482,"ECCENTRICITY":0.0001709,"INCLINATION":87.8852,"RA_OF_ASC_NODE":54.3834,"ARG_OF_PERICENTER":88.7661,"MEAN_ANOMALY":271.3663,"EPHEMERIS_TYPE":0,"CLASSIFICATION_TYPE":"U","NORAD_CAT_ID":49086,"ELEMENT_SET_NO":999,"REV_AT_EPOCH":19316,"BSTAR":9.5547e-5,"MEAN_MOTION_DOT":4.7e-7,"MEAN_MOTION_DDOT":0},{"OBJECT_NAME":"ONEWEB-0298","OBJECT_ID":"2021-075N","EPOCH":"2025-08-01T02:54:27.061056","MEAN_MOTION":13.17649479,"ECCENTRICITY":0.0001746,"INCLINATION":87.9032,"RA_OF_ASC_NODE":69.5815,"ARG_OF_PERICENTER":88.9375,"MEAN_ANOMALY":271.1956,"EPHEMERIS_TYPE":0,"CLASSIFICATION_TYPE":"U","NORAD_CAT_ID":49087,"ELEMENT_SET_NO":999,"REV_AT_EPOCH":19246,"BSTAR":0.00032361,"MEAN_MOTION_DOT":1.39e-6,"MEAN_MOTION_DDOT":0},{"OBJECT_NAME":"ONEWEB-0299","OBJECT_ID":"2021-075P","EPOCH":"2025-08-01T02:56:40.720128","MEAN_MOTION":13.17649907,"ECCENTRICITY":0.0001691,"INCLINATION":87.904,"RA_OF_ASC_NODE":69.5334,"ARG_OF_PERICENTER":90.6693,"MEAN_ANOMALY":269.4632,"EPHEMERIS_TYPE":0,"CLASSIFICATION_TYPE":"U","NORAD_CAT_ID":49088,"ELEMENT_SET_NO":999,"REV_AT_EPOCH":19242,"BSTAR":0.00030788,"MEAN_MOTION_DOT":1.32e-6,"MEAN_MOTION_DDOT":0},{"OBJECT_NAME":"ONEWEB-0300","OBJECT_ID":"2021-075Q","EPOCH":"2025-07-31T14:28:11.592480","MEAN_MOTION":13.12442867,"ECCENTRICITY":0.0002067,"INCLINATION":87.8851,"RA_OF_ASC_NODE":54.3831,"ARG_OF_PERICENTER":91.138,"MEAN_ANOMALY":268.9986,"EPHEMERIS_TYPE":0,"CLASSIFICATION_TYPE":"U","NORAD_CAT_ID":49089,"ELEMENT_SET_NO":999,"REV_AT_EPOCH":19315,"BSTAR":-0.00047704,"MEAN_MOTION_DOT":-1.59e-6,"MEAN_MOTION_DDOT":0},{"OBJECT_NAME":"ONEWEB-0301","OBJECT_ID":"2021-075R","EPOCH":"2025-07-31T14:04:50.043648","MEAN_MOTION":13.12442634,"ECCENTRICITY":0.0002169,"INCLINATION":87.8847,"RA_OF_ASC_NODE":54.3921,"ARG_OF_PERICENTER":91.6455,"MEAN_ANOMALY":268.4922,"EPHEMERIS_TYPE":0,"CLASSIFICATION_TYPE":"U","NORAD_CAT_ID":49090,"ELEMENT_SET_NO":999,"REV_AT_EPOCH":19251,"BSTAR":-0.0011477,"MEAN_MOTION_DOT":-4.0e-6,"MEAN_MOTION_DDOT":0},{"OBJECT_NAME":"ONEWEB-0302","OBJECT_ID":"2021-075S","EPOCH":"2025-07-31T15:35:57.059808","MEAN_MOTION":13.12440047,"ECCENTRICITY":0.0001457,"INCLINATION":87.8851,"RA_OF_ASC_NODE":54.382,"ARG_OF_PERICENTER":76.6285,"MEAN_ANOMALY":283.5005,"EPHEMERIS_TYPE":0,"CLASSIFICATION_TYPE":"U","NORAD_CAT_ID":49091,"ELEMENT_SET_NO":999,"REV_AT_EPOCH":19250,"BSTAR":-0.00027656,"MEAN_MOTION_DOT":-8.7e-7,"MEAN_MOTION_DDOT":0},{"OBJECT_NAME":"ONEWEB-0304","OBJECT_ID":"2021-075T","EPOCH":"2025-07-31T15:24:08.239392","MEAN_MOTION":13.17650038,"ECCENTRICITY":0.000165,"INCLINATION":87.9038,"RA_OF_ASC_NODE":69.6618,"ARG_OF_PERICENTER":86.1543,"MEAN_ANOMALY":273.9778,"EPHEMERIS_TYPE":0,"CLASSIFICATION_TYPE":"U","NORAD_CAT_ID":49092,"ELEMENT_SET_NO":999,"REV_AT_EPOCH":19136,"BSTAR":2.5437e-5,"MEAN_MOTION_DOT":2.3e-7,"MEAN_MOTION_DDOT":0},{"OBJECT_NAME":"ONEWEB-0305","OBJECT_ID":"2021-075U","EPOCH":"2025-07-31T15:14:24.501120","MEAN_MOTION":13.17647757,"ECCENTRICITY":0.0001476,"INCLINATION":87.9034,"RA_OF_ASC_NODE":69.6398,"ARG_OF_PERICENTER":94.4733,"MEAN_ANOMALY":265.6567,"EPHEMERIS_TYPE":0,"CLASSIFICATION_TYPE":"U","NORAD_CAT_ID":49093,"ELEMENT_SET_NO":999,"REV_AT_EPOCH":19236,"BSTAR":2.3569e-5,"MEAN_MOTION_DOT":2.2e-7,"MEAN_MOTION_DDOT":0},{"OBJECT_NAME":"ONEWEB-0308","OBJECT_ID":"2021-075V","EPOCH":"2025-07-31T22:45:43.178688","MEAN_MOTION":13.12442249,"ECCENTRICITY":0.000178,"INCLINATION":87.8849,"RA_OF_ASC_NODE":54.316,"ARG_OF_PERICENTER":85.7942,"MEAN_ANOMALY":274.339,"EPHEMERIS_TYPE":0,"CLASSIFICATION_TYPE":"U","NORAD_CAT_ID":49094,"ELEMENT_SET_NO":999,"REV_AT_EPOCH":19255,"BSTAR":0.00050457,"MEAN_MOTION_DOT":1.94e-6,"MEAN_MOTION_DDOT":0},{"OBJECT_NAME":"ONEWEB-0309","OBJECT_ID":"2021-075W","EPOCH":"2025-07-31T15:19:16.169376","MEAN_MOTION":13.17648326,"ECCENTRICITY":0.0001516,"INCLINATION":87.9035,"RA_OF_ASC_NODE":69.6565,"ARG_OF_PERICENTER":69.5257,"MEAN_ANOMALY":290.6037,"EPHEMERIS_TYPE":0,"CLASSIFICATION_TYPE":"U","NORAD_CAT_ID":49095,"ELEMENT_SET_NO":999,"REV_AT_EPOCH":19136,"BSTAR":-0.00055604,"MEAN_MOTION_DOT":-2.03e-6,"MEAN_MOTION_DDOT":0},{"OBJECT_NAME":"ONEWEB-0310","OBJECT_ID":"2021-075X","EPOCH":"2025-07-31T13:57:49.515840","MEAN_MOTION":13.12442356,"ECCENTRICITY":0.0001656,"INCLINATION":87.8854,"RA_OF_ASC_NODE":54.4347,"ARG_OF_PERICENTER":83.1095,"MEAN_ANOMALY":277.0222,"EPHEMERIS_TYPE":0,"CLASSIFICATION_TYPE":"U","NORAD_CAT_ID":49096,"ELEMENT_SET_NO":999,"REV_AT_EPOCH":19413,"BSTAR":-0.00098371,"MEAN_MOTION_DOT":-3.41e-6,"MEAN_MOTION_DDOT":0}]
